NORAD_CAT_ID,OBJECT_NAME,OBJECT_TYPE,EPOCH,MEAN_MOTION,ECCENTRICITY,INCLINATION,RA_OF_ASC_NODE,ARG_OF_PERICENTER,MEAN_ANOMALY,BSTAR,MEAN_MOTION_DOT,MEAN_MOTION_DDOT,TLE_LINE0,TLE_LINE1,TLE_LINE2,SEMIMAJOR_AXIS,PERIOD,APOGEE,PERIGEE,DECAYED
52553.0,STARLINK-3858,PAYLOAD,2022-07-18 16:00:00,15.08849204,0.0001648,53.2151,339.811,59.0,112.2252,-0.0026717,-0.00042568,0.0,0 STARLINK-3858,1 52553U 22051W   22199.66667824 -.00042568  00000-0 -26717-2 0  9990,2 52553  53.2151 339.8110 0001648  59.0000 112.2252 15.08849204 10723,6917.852,95.437,540.857,538.577,0.0
52553.0,STARLINK-3858,PAYLOAD,2022-07-18 22:00:00,15.08822395,0.0001615,53.2152,338.6889,53.6379,36.2805,0.0014443,0.00022762,0.0,0 STARLINK-3858,1 52553U 22051W   22199.91667824  .00022762  00000-0  14443-2 0  9993,2 52553  53.2152 338.6889 0001615  53.6379  36.2805 15.08822395  1302,6917.934,95.439,540.9159999999998,538.682,0.0
52553.0,STARLINK-3858,PAYLOAD,2022-07-19 06:00:00,15.08813062,0.0001472,53.2162,337.1906,61.9886,39.5189,0.0032875,0.00052383,0.0,0 STARLINK-3858,1 52553U 22051W   22200.25001157  .00052383  00000-0  32875-2 0  9995,2 52553  53.2162 337.1906 0001472  61.9886  39.5189 15.08813062 10811,6917.9630000000025,95.439,540.846,538.809,0.0
52553.0,STARLINK-3858,PAYLOAD,2022-07-19 14:00:01,15.08866403,0.0001575,53.2162,335.6956,58.5377,54.5596,-0.001877,-0.00030058,0.0,0 STARLINK-3858,1 52553U 22051W   22200.58334491 -.00030058  00000-0 -18770-2 0  9996,2 52553  53.2162 335.6956 0001575  58.5377  54.5596 15.08866403  1300,6917.8,95.436,540.754,538.575,0.0
52553.0,STARLINK-3858,PAYLOAD,2022-07-19 22:00:00,15.08863013,0.0001631999999999,53.2164,334.2032,50.9231,73.7813,-0.003449,-0.00054796,0.0,0 STARLINK-3858,1 52553U 22051W   22200.91667824 -.00054796  00000-0 -34490-2 0  9994,2 52553  53.2164 334.2032 0001632  50.9231  73.7813 15.08863013  1300,6917.81,95.436,540.804,538.5459999999998,0.0
52553.0,STARLINK-3858,PAYLOAD,2022-07-20 06:00:00,15.08822284,0.0001336,53.2158,332.7013,56.2247,80.1268,0.0025978999999999,0.0004128,0.0,0 STARLINK-3858,1 52553U 22051W   22201.25001157  .00041280  00000-0  25979-2 0  9997,2 52553  53.2158 332.7013 0001336  56.2247  80.1268 15.08822284 10965,6917.935,95.439,540.724,538.875,0.0
52553.0,STARLINK-3858,PAYLOAD,2022-07-20 14:00:01,15.08848421,0.0001658,53.2164,331.208,57.3185,90.588,-0.00082303,-0.00013366,0.0,0 STARLINK-3858,1 52553U 22051W   22201.58334491 -.00013366  00000-0 -82303-3 0  9994,2 52553  53.2164 331.2080 0001658  57.3185  90.5880 15.08848421  1304,6917.855,95.437,540.867,538.573,0.0
52553.0,STARLINK-3858,PAYLOAD,2022-07-20 22:00:01,15.08851389,0.0001643,53.2158,329.7099,51.8322,107.7395,-0.001565,-0.00025117,0.0,0 STARLINK-3858,1 52553U 22051W   22201.91668981 -.00025117  00000-0 -15650-2 0  9992,2 52553  53.2158 329.7099 0001643  51.8322 107.7395 15.08851389  1304,6917.846,95.437,540.847,538.5740000000002,0.0
52553.0,STARLINK-3858,PAYLOAD,2022-07-21 14:00:01,15.0881774,0.0001735,53.2161,326.7169,56.8734,125.8701,-0.00069977,-0.00011401,0.0,0 STARLINK-3858,1 52553U 22051W   22202.58335648 -.00011401  00000-0 -69977-3 0  9990,2 52553  53.2161 326.7169 0001735  56.8734 125.8701 15.08817740 11167,6917.948,95.439,541.014,538.613,0.0
52553.0,STARLINK-3858,PAYLOAD,2022-07-21 22:00:00,15.08828281,0.0001751,53.2161,325.2206,53.4842,140.7569,-0.00014676,-2.622e-05,0.0,0 STARLINK-3858,1 52553U 22051W   22202.91667824 -.00002622  00000-0 -14676-3 0  9992,2 52553  53.2161 325.2206 0001751  53.4842 140.7569 15.08828281  1309,6917.916,95.438,540.993,538.57,0.0
52553.0,STARLINK-3858,PAYLOAD,2022-07-22 06:00:00,15.0881567,0.0001633,53.2164,323.7226,59.9667,145.8634,0.0030807,0.0004905,0.0,0 STARLINK-3858,1 52553U 22051W   22203.25001157  .00049050  00000-0  30807-2 0  9998,2 52553  53.2164 323.7226 0001633  59.9667 145.8634 15.08815670  1309,6917.955,95.439,540.9490000000002,538.69,0.0
52553.0,STARLINK-3858,PAYLOAD,2022-07-22 22:00:00,15.08874088,0.0001715,53.2165,320.7312,52.1054,176.9141,-0.0035242,-0.00055993,0.0,0 STARLINK-3858,1 52553U 22051W   22203.91667824 -.00055993  00000-0 -35242-2 0  9993,2 52553  53.2165 320.7312 0001715  52.1054 176.9141 15.08874088 11373,6917.776,95.435,540.828,538.455,0.0
52553.0,STARLINK-3858,PAYLOAD,2022-07-23 14:00:01,15.08821076,0.0001776,53.2168,317.7384,55.1289,197.15,-0.00026396,-4.484e-05,0.0,0 STARLINK-3858,1 52553U 22051W   22204.58335648 -.00004484  00000-0 -26396-3 0  9993,2 52553  53.2168 317.7384 0001776  55.1289 197.1500 15.08821076  1306,6917.938,95.439,541.0319999999998,538.575,0.0
52553.0,STARLINK-3858,PAYLOAD,2022-07-23 16:00:00,15.08810913,0.0001819,53.2169,317.366,53.847,291.2633,0.0013675,0.00021525,0.0,0 STARLINK-3858,1 52553U 22051W   22204.66667824  .00021525  00000-0  13675-2 0  9994,2 52553  53.2169 317.3660 0001819  53.8470 291.2633 15.08810913 11486,6917.969,95.439,541.0930000000002,538.576,0.0
52553.0,STARLINK-3858,PAYLOAD,2022-07-23 22:00:00,15.08843276,0.0001724,53.2166,316.2418,54.0809,209.7011,-0.0012052,-0.00019419,0.0,0 STARLINK-3858,1 52553U 22051W   22204.91667824 -.00019419  00000-0 -12052-2 0  9991,2 52553  53.2166 316.2418 0001724  54.0809 209.7011 15.08843276  1308,6917.87,95.437,540.928,538.543,0.0
52553.0,STARLINK-3858,PAYLOAD,2022-07-24 14:00:01,15.08849042,0.0001699999999999,53.2168,313.2495,55.4655,231.4912,-0.0017699,-0.00028353,0.0,0 STARLINK-3858,1 52553U 22051W   22205.58334491 -.00028353  00000-0 -17699-2 0  9995,2 52553  53.2168 313.2495 0001700  55.4655 231.4912 15.08849042  1309,6917.853,95.437,540.894,538.5419999999998,0.0
52553.0,STARLINK-3858,PAYLOAD,2022-07-24 22:00:00,15.08844154,0.0001594,53.2166,311.7526,52.9319,245.6193,-0.0026401999999999,-0.00042067,0.0,0 STARLINK-3858,1 52553U 22051W   22205.91667824 -.00042067  00000-0 -26402-2 0  9991,2 52553  53.2166 311.7526 0001594  52.9319 245.6193 15.08844154  1302,6917.868,95.437,540.835,538.63,0.0
52553.0,STARLINK-3858,PAYLOAD,2022-07-25 14:00:01,15.08828622,0.0001617,53.2166,308.7607,54.0966,267.6143,-0.00018622,-3.2500000000000004e-05,0.0,0 STARLINK-3858,1 52553U 22051W   22206.58334491 -.00003250  00000-0 -18622-3 0  9993,2 52553  53.2166 308.7607 0001617  54.0966 267.6143 15.08828622  1306,6917.915,95.438,540.899,538.6619999999998,0.0
52553.0,STARLINK-3858,PAYLOAD,2022-07-25 22:00:00,15.08849917,0.0001551999999999,53.2162,307.2637,53.4034,279.8826,-0.002069,-0.00033074,0.0,0 STARLINK-3858,1 52553U 22051W   22206.91667824 -.00033074  00000-0 -20690-2 0  9993,2 52553  53.2162 307.2637 0001552  53.4034 279.8826 15.08849917  1309,6917.85,95.437,540.789,538.641,0.0
52553.0,STARLINK-3858,PAYLOAD,2022-07-26 14:00:01,15.08838831,0.0001628,53.2162,304.2719,54.3258,302.1476,-5.7064e-06,-3.79e-06,0.0,0 STARLINK-3858,1 52553U 22051W   22207.58334491 -.00000379  00000-0 -57064-5 0  9998,2 52553  53.2162 304.2719 0001628  54.3258 302.1476 15.08838831  1303,6917.884,95.438,540.875,538.623,0.0
52553.0,STARLINK-3858,PAYLOAD,2022-07-26 22:00:00,15.08862889,0.0001563,53.2158,302.7748,53.5907,314.4747,-0.0020410999999999,-0.00032646,0.0,0 STARLINK-3858,1 52553U 22051W   22207.91667824 -.00032646  00000-0 -20411-2 0  9999,2 52553  53.2158 302.7748 0001563  53.5907 314.4747 15.08862889  1300,6917.81,95.436,540.757,538.594,0.0
52553.0,STARLINK-3858,PAYLOAD,2022-07-27 14:00:01,15.0882993,0.0001579,53.2159,299.783,51.3014,339.9865,-0.00036729,-6.127e-05,0.0,0 STARLINK-3858,1 52553U 22051W   22208.58334491 -.00006127  00000-0 -36729-3 0  9999,2 52553  53.2159 299.7830 0001579  51.3014 339.9865 15.08829930  1303,6917.911,95.438,540.869,538.684,0.0
52553.0,STARLINK-3858,PAYLOAD,2022-07-27 16:00:00,15.08806773,0.0001556,53.216,299.4091,48.5973,75.5934,0.0027307,0.00043399,0.0,0 STARLINK-3858,1 52553U 22051W   22208.66667824  .00043399  00000-0  27307-2 0  9998,2 52553  53.2160 299.4091 0001556  48.5973  75.5934 15.08806773 12085,6917.982,95.44,540.923,538.771,0.0
52553.0,STARLINK-3858,PAYLOAD,2022-07-27 22:00:00,15.08847861,0.0001495,53.2157,298.2857,50.2799,352.5858,-0.0019172999999999,-0.00030679,0.0,0 STARLINK-3858,1 52553U 22051W   22208.91667824 -.00030679  00000-0 -19173-2 0  9997,2 52553  53.2157 298.2857 0001495  50.2799 352.5858 15.08847861  1305,6917.856,95.437,540.756,538.687,0.0
52553.0,STARLINK-3858,PAYLOAD,2022-07-28 08:00:01,15.08850718,0.0001486,53.2159,296.415,55.5306,91.8163,-0.00089826,-0.00014559,0.0,0 STARLINK-3858,1 52553U 22051W   22209.33334491 -.00014559  00000-0 -89826-3 0  9997,2 52553  53.2159 296.4150 0001486  55.5306  91.8163 15.08850718 12180,6917.848000000001,95.437,540.741,538.685,0.0
52553.0,STARLINK-3858,PAYLOAD,2022-07-28 14:00:01,15.08833415,0.0001633,53.2158,295.2940000000001,49.7206,16.3302,0.00064645,0.00010013,0.0,0 STARLINK-3858,1 52553U 22051W   22209.58334491  .00010013  00000-0  64645-3 0  9995,2 52553  53.2158 295.2940 0001633  49.7206  16.3302 15.08833415  1305,6917.901,95.438,540.895,538.636,0.0
52553.0,STARLINK-3858,PAYLOAD,2022-07-28 22:00:00,15.08858722,0.0001549,53.2158,293.7966,49.823,27.8169,-0.0017865,-0.00028622,0.0,0 STARLINK-3858,1 52553U 22051W   22209.91667824 -.00028622  00000-0 -17865-2 0  9999,2 52553  53.2158 293.7966 0001549  49.8230  27.8169 15.08858722  1306,6917.823,95.436,540.76,538.617,0.0
52553.0,STARLINK-3858,PAYLOAD,2022-07-29 06:00:00,15.08862027,0.0001486999999999,53.216,292.2996,54.13800000000001,35.1074,-0.0011219,-0.00018109,0.0,0 STARLINK-3858,1 52553U 22051W   22210.25001157 -.00018109  00000-0 -11219-2 0  9995,2 52553  53.2160 292.2996 0001487  54.1380  35.1074 15.08862027 12326,6917.813,95.436,540.707,538.649,0.0
52553.0,STARLINK-3858,PAYLOAD,2022-07-29 14:00:01,15.08821267,0.0001601,53.216,290.805,45.8526,55.011,0.00043416,6.625e-05,0.0,0 STARLINK-3858,1 52553U 22051W   22210.58334491  .00006625  00000-0  43416-3 0  9994,2 52553  53.2160 290.8050 0001601  45.8526  55.0110 15.08821267  1307,6917.938,95.439,540.91,538.695,0.0
